address,city,state,zip
975 SCR 481 A,Bay Springs,MS,39422
58 County Road 237,Bay Springs,MS,39422
3225 SCR 559,Pulaski,MS,39152
3715 County Road 31,Rose Hill,MS,39356
810 HWY 501 S,Forest,MS,39074
838 County Road 52814,Bay Springs,MS,39422
1087 SCR 129 ,Magee,MS,39111
362 SCR 514,Morton,MS,39117
511 SCR 502C1,Bay Springs,MS,39422
599 SCR 502C1,Bay Springs,MS,39422
733 HWY 28,Bay Springs,MS,39422
43 County Road 84,Bay Springs,MS,39422
12801 SCR 504,Forrest,MS,39074
1228 SCR 35-11,Pulaski,MS,39152
3268 SCR 529,Bay Springs,MS,39422
2335 County Road 24,Bay Springs,MS,39422
28293 HWY 35,Bay Springs,MS,39422
529 SCR 15,Bay Springs,MS,39422
40 IRA GILBERT RD,Bay Springs,MS,39422
2317 SCR 15,Bay Springs,MS,39422
368 SCR 144,Bay Springs,MS,39422
25 LOTT LANE,Bay Springs,MS,39422
823 PITTMAN RD,Bay Springs,MS,39422
3033 County Road 24 ,Rose Hill,MS,39356
3038 County Road 24 ,Rose Hill,MS,39356
226 GUTHRIE CARTER RD,Bay Springs,MS,39422
105 County Road 182A2,Bay Springs,MS,39422
6811 HWY 84,Bay Springs,MS,39422
6449 SCR 101,Bay Springs,MS,39422
387 RANKIN FERGUSON RD,Bay Springs,MS,39422
17 County Road 528148,Bay Springs,MS,39422
824 GARRICK RD,Bay Springs,MS,39422
3691 County Road 31,Bay Springs,MS,39422
592 SCR 538 E,Morton,MS,39117
362 SCR 514,Morton,MS,39117
222 GREEN GROVE RD,Bay Springs,MS,39422
611 ANTIOCH SHILOH RD,Bay Springs,MS,39422
6631 SCR 101 ,Louin,MS,39338
3675 County Road 16 ,Louin,MS,39338
678 J BURNHAM RD,Bay Springs,MS,39422
3316 SCR 529,Louin,MS,39338
201 SCR 135A,Bay Springs,MS,39422
37 County Road 2683,Louin,MS,39338
3459 SCR 529,Bay Springs,MS,39422
4947 County Road 23,Bay Springs,MS,39422
76 WILL HOLLOWAY,Bay Springs,MS,39422
2755 SCR 80 E,Bay Springs,MS,39422
318 County Road 7,Bay Springs,MS,39422
County Road 155,Stringer,MS,39481
709 CONCORD RD,Pelahathcie,MS,39145
527 SCR 15 ,Taylorsville,MS,39168
593 SCR 80 A,Bay Springs,MS,39422
1984 HWY 28  ,Taylorsville,MS,39168
337 County Road 17,Bay Springs,MS,39422
551 GALILEE CHURCH RD,Bay Springs,MS,39422
5107 HWY 531,Bay Springs,MS,39422
3813 SCR 50,Bay Springs,MS,39422
21 WALT BYRD RD,Bay Springs,MS,39422
31 N THIRD ST,Bay Springs,MS,39422
95 County Road 50329,Bay Springs,MS,39422
497 JASPER HWY 533,Bay Springs,MS,39422
275 TOWER RD,Bay Springs,MS,39422
733 HWY 28,Bay Springs,MS,39422
34 County Road 2353,Bay Springs,MS,39422
115 County Road 5336,Bay Springs,MS,39422
80 County Road 5336,Bay Springs,MS,39422
20 County Road 153,Bay Springs,MS,39422
353 TOWER RD,Bay Springs,MS,39422
258 HWY 28 W,Bay Springs,MS,39422
92 County Road 5336,Bay Springs,MS,39422
126 County Road 5336,Bay Springs,MS,39422
28 BERNIUS HILL ,Bay Springs,MS,39422
14 BLACK BERRY DR ,Bay Springs,MS,39422
650 SCR 32-B1,Bay Springs,MS,39422
2035 HWY  29 N,Bay Springs,MS,39422
4160-SCR 529,Bay Springs,MS,39422
4997 County Road 23,Bay Springs,MS,39422
1117 HWY 503,Bay Springs,MS,39422
34 ROSEMARY DR. ,Bay Springs,MS,39422
590 SCR 515 A ,Lake,MS,39092
330 SCR 531-2,Bay Springs,MS,39422
353 TOWER RD,Bay Springs,MS,39422
26 County Road 1684,Bay Springs,MS,39422
3669 SCR 529 ,Louin,MS,39338
18 DANMAR DR,Bay Springs,MS,39422
683 SERVICE RD,Bay Springs,MS,39422
3067 BEAVER TRL,Bay Springs,MS,39422
51 JOHN GRIFFITH RD,Laurel,MS,39440
1933 W 10 ST,Laurel,MS,39440
5037 SCR 131,Bay Springs,MS,39422
1814 SCR 538,Bay Springs,MS,39422
14 DANMAR DR,Bay Springs,MS,39422
5 NEIL RD,Bay Springs,MS,39422
66 PITTMAN RD,Bay Springs,MS,39422
44 PARKVIEW DR,Bay Springs,MS,39422
815 SCR 15 ,Bay Springs,MS,39422
44 PARKVIEW DR,Bay Springs,MS,39422
17 DANMAR DR.,Bay Springs,MS,39422
267 BO GIBBS RD.,Bay Springs,MS,39422
3813 SCR 506 LAWRENCE,Bay Springs,MS,39422
306 WASHINGTON ST,Bay Springs,MS,39422
423 MIMOSA DR,Bay Springs,MS,39422
294 Duck Hill RD,Bay Springs,MS,39422
19 TOMMY PICKERING RD,Bay Springs,MS,39422
593 SCR 80 A,Bay Springs,MS,39422
16 CLAIRE LN. ,Bay Springs,MS,39422
12 KIMBERLY DR,Laurel,MS,39440
310 PINEVIEW DR,Bay Springs,MS,39422
3554 HWY 528 ,Bay Springs,MS,39422
100 LAKE LOUISE DR. ,Bay Springs,MS,39422
2215 SCR 8,Bay Springs,MS,39422
191 GRAY RD ,Pelahatchie,MS,39422
5 INDIAN TRAIL,Bay Springs,MS,39422
1587 HWY 84 E,Bay Springs,MS,39422
1769 AUGUSTA RD,Bay Springs,MS,39422
1440 HWY 588 ,Ellisville,MS,39437
3691 County Road 31,Bay Springs,MS,39422
4935 SCR 99,Bay Springs,MS,39422
16 N Holly St,Bay Springs,MS,39422
360 County Road 1539,Bay Springs,MS,39422
153 SCR 502C1,Bay Springs,MS,39422
99 BESSIE RD,Lake,MS,39092
391 DAVIS-HYATT RD,Bay Springs,MS,39422
108 SCR 581 B,Bay Springs,MS,39422
91 RASTUS RIELS ,Bay Springs,MS,39422
33 PUDDIN DR ,Bay Springs,MS,39422
5521 HWY 11 N,Bay Springs,MS,39422
43 HWY 28 WEST,Bay Springs,MS,39422
616 SERVICE RD,Bay Springs,MS,39422
1783 County Road 35,Bay Springs,MS,39422
1917 County Road 35,Bay Springs,MS,39422
935 HWY 542,Bay Springs,MS,39422
200 ROLLING WOOD DR,Bay Springs,MS,39422
856 County Road 19 ,Stringer,MS,39481
646 AIRPORT RD ,Newton,MS,39345
158 WALTERS RD ,Bay Springs,MS,39422
811 County Road 10 ,Stinger,MS,39481
